{
    "CCSDS_OMM_VERS": "3.0",
    "COMMENT": "GENERATED VIA SPACE-TRACK.ORG API",
    "CREATION_DATE": "2025-11-22T18:56:57",
    "ORIGINATOR": "18 SPCS",
    "OBJECT_NAME": "BEIDOU 3M24",
    "OBJECT_ID": "2019-061B",
    "CENTER_NAME": "EARTH",
    "REF_FRAME": "TEME",
    "TIME_SYSTEM": "UTC",
    "MEAN_ELEMENT_THEORY": "SGP4",
    "EPOCH": "2025-11-21T08:20:31.357824",
    "MEAN_MOTION": "1.86229672",
    "ECCENTRICITY": "0.00060282",
    "INCLINATION": "54.3986",
    "RA_OF_ASC_NODE": "189.7068",
    "ARG_OF_PERICENTER": "18.6962",
    "MEAN_ANOMALY": "191.7037",
    "EPHEMERIS_TYPE": "0",
    "CLASSIFICATION_TYPE": "U",
    "NORAD_CAT_ID": "44543",
    "ELEMENT_SET_NO": "999",
    "REV_AT_EPOCH": "4192",
    "BSTAR": "0.00000000000000",
    "MEAN_MOTION_DOT": "0.00000075",
    "MEAN_MOTION_DDOT": "0.0000000000000",
    "SEMIMAJOR_AXIS": "27906.321",
    "PERIOD": "773.239",
    "APOAPSIS": "21545.009",
    "PERIAPSIS": "21511.364",
    "OBJECT_TYPE": "PAYLOAD",
    "RCS_SIZE": "LARGE",
    "COUNTRY_CODE": "PRC",
    "LAUNCH_DATE": "2019-09-22",
    "SITE": "XSC",
    "DECAY_DATE": null,
    "FILE": "4894246",
    "GP_ID": "303253788",
    "TLE_LINE0": "0 BEIDOU 3M24",
    "TLE_LINE1": "1 44543U 19061B   25325.34758516  .00000075  00000-0  00000-0 0  9995",
    "TLE_LINE2": "2 44543  54.3986 189.7068 0006028  18.6962 191.7037  1.86229672 41921"
}